YAMAL 401               
1 40345U 14082A   26183.17248507  .00000000  00000+0  00000+0 0  9993
2 40345   0.0141  32.3075 0000450  44.6414 355.3059  1.00269770 42060
ASTRA 2G                
1 40364U 14089A   26183.23174860  .00000160  00000+0  00000+0 0  9995
2 40364   0.0462 349.7090 0005013  83.0403 319.1628  1.00269995 42119
FENGYUN 2G              
1 40367U 14090A   26182.90925532 -.00000294  00000+0  00000+0 0  9992
2 40367   5.6746  72.6430 0003602 150.4692 123.7546  1.00267071 42143
MUOS-3                  
1 40374U 15002A   26183.00926332 -.00000120  00000+0  00000+0 0  9993
2 40374   4.5487  43.5840 0052753 177.6811  46.6434  1.00270550 41737
INMARSAT 5-F2           
1 40384U 15005A   26182.85883701 -.00000275  00000+0  00000+0 0  9992
2 40384   0.0184  22.3607 0000227  57.4427  94.2772  1.00273701 41146
ABS-3A                  
1 40424U 15010A   26183.08299366  .00000000  00000+0  00000+0 0  9992
2 40424   0.0422  62.6108 0001492   1.7120 242.7050  1.00271994 41529
EUTELSAT 115 WEST B     
1 40425U 15010B   26182.98954618 -.00000014  00000+0  00000+0 0  9995
2 40425   0.0080 156.5867 0000234 115.6454 249.1222  1.00271852 41539
EXPRESS-AM7             
1 40505U 15012A   26183.23408861  .00000161  00000+0  00000+0 0  9991
2 40505   0.0182  32.8232 0003183  74.1679 297.5390  1.00271886 41155
BEIDOU-3S IGSO-1S       
1 40549U 15019A   26182.78607587 -.00000144  00000+0  00000+0 0  9993
2 40549  49.1677 295.2866 0039278 192.1614 165.4543  1.00248803 41211
THOR 7                  
1 40613U 15022A   26183.22602858  .00000003  00000+0  00000+0 0  9998
2 40613   0.0465 215.9333 0002566 241.4200 263.6371  1.00273504 40968
TURKMENALEM52E/MONACOSAT
1 40617U 15023A   26183.23642862  .00000114  00000+0  00000+0 0  9996
2 40617   0.0348  79.0874 0002958  14.8018 323.5132  1.00271783 40996
DIRECTV 15              
1 40663U 15026A   26183.16850328 -.00000092  00000+0  00000+0 0  9996
2 40663   0.0164  62.6360 0000503 344.3138 191.0383  1.00269091 40613
SKY MEXICO-1            
1 40664U 15026B   26183.21051517 -.00000224  00000+0  00000+0 0  9993
2 40664   0.0185  33.3771 0002649  86.5173 157.3367  1.00270379 40602
METEOSAT-11 (MSG-4)     
1 40732U 15034A   26183.22802192  .00000070  00000+0  00000+0 0  9990
2 40732   3.2381  71.0163 0002237 348.6637 312.0079  1.00267790  7364
STAR ONE C4             
1 40733U 15034B   26182.49940959 -.00000254  00000+0  00000+0 0  9998
2 40733   0.0209 356.1227 0002031  82.6474 310.5523  1.00269317 40151
WGS F7 (USA 263)        
1 40746U 15036A   26182.83311110  .00000000  00000+0  00000+0 0  9991
2 40746   0.0431  62.6142 0000767 133.7418 198.4293  1.00273249 40018
INTELSAT 34 (IS-34)     
1 40874U 15039A   26183.21519519 -.00000275  00000+0  00000+0 0  9997
2 40874   0.0113   8.3807 0000490  27.6706 266.1737  1.00269869 39787
EUTELSAT 8 WEST B       
1 40875U 15039B   26183.22455523 -.00000055  00000+0  00000+0 0  9999
2 40875   0.0642 345.4345 0003741 110.0849 257.5853  1.00272126 39800
GSAT-6                  
1 40880U 15041A   26183.17118507 -.00000150  00000+0  00000+0 0  9996
2 40880   1.9571  82.4086 0003114  10.4257 331.5071  1.00269999 39749
INMARSAT 5-F3           
1 40882U 15042A   26183.04786662  .00000060  00000+0  00000+0 0  9997
2 40882   0.0185  29.9619 0000488  84.6863   2.2676  1.00270675 39721
MUOS-4                  
1 40887U 15044A   26183.09842041 -.00000084  00000+0  00000+0 0  9990
2 40887   4.3561  42.3221 0057440   3.2753 344.9659  1.00272223 39700
TJS-1                   
1 40892U 15046A   26183.25682723 -.00000146  00000+0  00000+0 0  9994
2 40892   0.3601  84.8782 0005837   9.4121  73.4683  1.00269942 39727
EXPRESS-AM8             
1 40895U 15048A   26182.43917385 -.00000101  00000+0  00000+0 0  9994
2 40895   0.0215 295.4343 0000367 105.0275  23.1281  1.00272118 39485
BEIDOU-3S IGSO-2S       
1 40938U 15053A   26181.70325568 -.00000093  00000+0  00000+0 0  9993
2 40938  49.1997 258.6211 0065678 193.2539 174.4507  1.00257046 39492
SKY MUSTER 1 (NBN1A)    
1 40940U 15054A   26183.25388056  .00000000  00000+0  00000+0 0  9997
2 40940   0.0207   4.7622 0001939  92.7616  54.4070  1.00268987 39410
ARSAT 2                 
1 40941U 15054B   26182.85363700 -.00000214  00000+0  00000+0 0  9990
2 40941   0.0094  19.5817 0002168  73.6324  52.9951  1.00270878 39451
MORELOS 3               
1 40946U 15056A   26183.20371563 -.00000033  00000+0  00000+0 0  9992
2 40946   3.1993  15.4627 0000541  30.6191 194.4039  1.00269350 39430
APSTAR-9                
1 40982U 15059A   26182.60366771 -.00000255  00000+0  00000+0 0  9999
2 40982   0.0228 326.1344 0002893 211.6045 101.2535  1.00272305 39268
TURKSAT 4B              
1 40984U 15060A   26183.23608196  .00000125  00000+0  00000+0 0  9998
2 40984   0.0265 285.7328 0002289 171.3096 318.2142  1.00276742 39241
ZHONGXING-2C            
1 41021U 15063A   26183.12490265 -.00000314  00000+0  00000+0 0  9999
2 41021   0.3112  89.1454 0007800  95.4828 243.9659  1.00271994 39125
GSAT-15                 
1 41028U 15065A   26183.10206043 -.00000247  00000+0  00000+0 0  9990
2 41028   0.0427 253.7187 0004445 187.1575 329.5056  1.00270035 38946
BADR-7 (ARABSAT-6B)     
1 41029U 15065B   26183.23131527  .00000155  00000+0  00000+0 0  9996
2 41029   0.0519 220.8326 0004108 337.6174 191.1120  1.00269042 38910
