OBJECT_NAME,OBJECT_ID,EPOCH,MEAN_MOTION,ECCENTRICITY,INCLINATION,RA_OF_ASC_NODE,ARG_OF_PERICENTER,MEAN_ANOMALY,EPHEMERIS_TYPE,CLASSIFICATION_TYPE,NORAD_CAT_ID,ELEMENT_SET_NO,REV_AT_EPOCH,BSTAR,MEAN_MOTION_DOT,MEAN_MOTION_DDOT
YAMAL 401,2014-082A,2026-07-02T04:08:22.710048,1.00269770,.00004509,0.0141,32.3075,44.6414,355.3059,0,U,40345,999,4206,0,0,0
ASTRA 2G,2014-089A,2026-07-02T05:33:43.079040,1.00269995,.0005013,0.0462,349.7090,83.0403,319.1628,0,U,40364,999,4211,0,.16E-5,0
FENGYUN 2G,2014-090A,2026-07-01T21:49:19.659648,1.00267071,.00036026,5.6746,72.6430,150.4692,123.7546,0,U,40367,999,4214,0,-.294E-5,0
MUOS-3,2015-002A,2026-07-02T00:13:20.350848,1.00270550,.00527532,4.5487,43.5840,177.6811,46.6434,0,U,40374,999,4173,0,-.12E-5,0
INMARSAT 5-F2,2015-005A,2026-07-01T20:36:43.517664,1.00273701,.00002272,0.0184,22.3607,57.4427,94.2772,0,U,40384,999,4114,0,-.275E-5,0
ABS-3A,2015-010A,2026-07-02T01:59:30.652224,1.00271994,.00014927,0.0422,62.6108,1.7120,242.7050,0,U,40424,999,4152,0,0,0
EUTELSAT 115 WEST B,2015-010B,2026-07-01T23:44:56.789952,1.00271852,.00002343,0.0080,156.5867,115.6454,249.1222,0,U,40425,999,4153,0,-.14E-6,0
EXPRESS-AM7,2015-012A,2026-07-02T05:37:05.255904,1.00271886,.00031831,0.0182,32.8232,74.1679,297.5390,0,U,40505,999,4115,0,.161E-5,0
BEIDOU-3S IGSO-1S,2015-019A,2026-07-01T18:51:56.955168,1.00248803,.00392789,49.1677,295.2866,192.1614,165.4543,0,U,40549,999,4121,0,-.144E-5,0
THOR 7,2015-022A,2026-07-02T05:25:28.869312,1.00273504,.00025669,0.0465,215.9333,241.4200,263.6371,0,U,40613,999,4096,0,.3E-7,0
TURKMENALEM52E/MONACOSAT,2015-023A,2026-07-02T05:40:27.432768,1.00271783,.00029589,0.0348,79.0874,14.8018,323.5132,0,U,40617,999,4099,0,.114E-5,0
DIRECTV 15,2015-026A,2026-07-02T04:02:38.683392,1.00269091,.00005037,0.0164,62.6360,344.3138,191.0383,0,U,40663,999,4061,0,-.92E-6,0
SKY MEXICO-1,2015-026B,2026-07-02T05:03:08.510688,1.00270379,.0002649,0.0185,33.3771,86.5173,157.3367,0,U,40664,999,4060,0,-.224E-5,0
METEOSAT-11 (MSG-4),2015-034A,2026-07-02T05:28:21.093888,1.00267790,.00022373,3.2381,71.0163,348.6637,312.0079,0,U,40732,999,736,0,.7E-6,0
STAR ONE C4,2015-034B,2026-07-01T11:59:08.988576,1.00269317,.00020315,0.0209,356.1227,82.6474,310.5523,0,U,40733,999,4015,0,-.254E-5,0
WGS F7 (USA 263),2015-036A,2026-07-01T19:59:40.799040,1.00273249,.00007673,0.0431,62.6142,133.7418,198.4293,0,U,40746,999,4001,0,0,0
INTELSAT 34 (IS-34),2015-039A,2026-07-02T05:09:52.864416,1.00269869,.00004902,0.0113,8.3807,27.6706,266.1737,0,U,40874,999,3978,0,-.275E-5,0
EUTELSAT 8 WEST B,2015-039B,2026-07-02T05:23:21.571872,1.00272126,.00037416,0.0642,345.4345,110.0849,257.5853,0,U,40875,999,3980,0,-.55E-6,0
GSAT-6,2015-041A,2026-07-02T04:06:30.390048,1.00269999,.00031142,1.9571,82.4086,10.4257,331.5071,0,U,40880,999,3974,0,-.15E-5,0
INMARSAT 5-F3,2015-042A,2026-07-02T01:08:55.675968,1.00270675,.00004889,0.0185,29.9619,84.6863,2.2676,0,U,40882,999,3972,0,.6E-6,0
MUOS-4,2015-044A,2026-07-02T02:21:43.523424,1.00272223,.005744,4.3561,42.3221,3.2753,344.9659,0,U,40887,999,3970,0,-.84E-6,0
TJS-1,2015-046A,2026-07-02T06:09:49.872672,1.00269942,.00058371,0.3601,84.8782,9.4121,73.4683,0,U,40892,999,3972,0,-.146E-5,0
EXPRESS-AM8,2015-048A,2026-07-01T10:32:24.620640,1.00272118,.00003674,0.0215,295.4343,105.0275,23.1281,0,U,40895,999,3948,0,-.101E-5,0
BEIDOU-3S IGSO-2S,2015-053A,2026-06-30T16:52:41.290752,1.00257046,.00656789,49.1997,258.6211,193.2539,174.4507,0,U,40938,999,3949,0,-.93E-6,0
SKY MUSTER 1 (NBN1A),2015-054A,2026-07-02T06:05:35.280384,1.00268987,.00019398,0.0207,4.7622,92.7616,54.4070,0,U,40940,999,3941,0,0,0
ARSAT 2,2015-054B,2026-07-01T20:29:14.236800,1.00270878,.00021681,0.0094,19.5817,73.6324,52.9951,0,U,40941,999,3945,0,-.214E-5,0
MORELOS 3,2015-056A,2026-07-02T04:53:21.030432,1.00269350,.0000541,3.1993,15.4627,30.6191,194.4039,0,U,40946,999,3943,0,-.33E-6,0
APSTAR-9,2015-059A,2026-07-01T14:29:16.890144,1.00272305,.00028933,0.0228,326.1344,211.6045,101.2535,0,U,40982,999,3926,0,-.255E-5,0
TURKSAT 4B,2015-060A,2026-07-02T05:39:57.481344,1.00276742,.00022894,0.0265,285.7328,171.3096,318.2142,0,U,40984,999,3924,0,.125E-5,0
ZHONGXING-2C,2015-063A,2026-07-02T02:59:51.588960,1.00271994,.00078,0.3112,89.1454,95.4828,243.9659,0,U,41021,999,3912,0,-.314E-5,0
GSAT-15,2015-065A,2026-07-02T02:26:58.021152,1.00270035,.00044455,0.0427,253.7187,187.1575,329.5056,0,U,41028,999,3894,0,-.247E-5,0
BADR-7 (ARABSAT-6B),2015-065B,2026-07-02T05:33:05.639328,1.00269042,.00041083,0.0519,220.8326,337.6174,191.1120,0,U,41029,999,3891,0,.155E-5,0
